BANDWAGON-2 OBJECT D    
1 62380U 24247D   26068.52261193  .00011259  00000+0  40119-3 0  9994
2 62380  44.9954 115.6710 0003488 351.1453   8.9368 15.29076102 67732
STARLINK-35761          
1 66961U 25288C   26068.24377298  .00040508  00000+0  14731-2 0  9991
2 66961  43.0012  25.5874 0001115 282.5954  77.4773 15.27587608 15228
